MALLIGYONG-1            
1 58400U 23179A   24124.61195705  .00006850  00000+0  30015-3 0  9996
2 58400  97.4099  12.1342 0010964  65.7043 294.5338 15.22269430 24942
